[{"OBJECT_NAME":"SITRO-AIS 6 (CHIRKIN)","OBJECT_ID":"2023-091AC","EPOCH":"2026-03-09T23:26:09.745152","MEAN_MOTION":15.244139,"ECCENTRICITY":0.00142211,"INCLINATION":97.5181,"RA_OF_ASC_NODE":131.6463,"ARG_OF_PERICENTER":95.0602,"MEAN_ANOMALY":265.2259,"EPHEMERIS_TYPE":0,"CLASSIFICATION_TYPE":"U","NORAD_CAT_ID":57192,"ELEMENT_SET_NO":999,"REV_AT_EPOCH":14916,"BSTAR":0.00035317072,"MEAN_MOTION_DOT":8.613e-5,"MEAN_MOTION_DDOT":0},{"OBJECT_NAME":"STARLINK-32100","OBJECT_ID":"2024-086E","EPOCH":"2026-03-09T00:04:30.461376","MEAN_MOTION":15.27577555,"ECCENTRICITY":9.624e-5,"INCLINATION":43.0022,"RA_OF_ASC_NODE":45.6665,"ARG_OF_PERICENTER":250.5118,"MEAN_ANOMALY":109.563,"EPHEMERIS_TYPE":0,"CLASSIFICATION_TYPE":"U","NORAD_CAT_ID":59686,"ELEMENT_SET_NO":999,"REV_AT_EPOCH":10421,"BSTAR":6.373714e-6,"MEAN_MOTION_DOT":-8.7e-7,"MEAN_MOTION_DDOT":0}]
